[{"OBJECT_NAME":"TEN-KOH","OBJECT_ID":"2018-084G","EPOCH":"2026-03-09T23:23:52.653408","MEAN_MOTION":15.02465351,"ECCENTRICITY":0.0011972,"INCLINATION":98.0798,"RA_OF_ASC_NODE":257.1735,"ARG_OF_PERICENTER":91.8355,"MEAN_ANOMALY":268.424,"EPHEMERIS_TYPE":0,"CLASSIFICATION_TYPE":"U","NORAD_CAT_ID":43677,"ELEMENT_SET_NO":999,"REV_AT_EPOCH":40126,"BSTAR":0.00025918134,"MEAN_MOTION_DOT":3.377e-5,"MEAN_MOTION_DDOT":0},{"OBJECT_NAME":"STARLINK-4351","OBJECT_ID":"2022-084E","EPOCH":"2026-03-09T17:06:04.691520","MEAN_MOTION":15.01258627,"ECCENTRICITY":0.00020831,"INCLINATION":97.6036,"RA_OF_ASC_NODE":130.2379,"ARG_OF_PERICENTER":87.3881,"MEAN_ANOMALY":272.7581,"EPHEMERIS_TYPE":0,"CLASSIFICATION_TYPE":"U","NORAD_CAT_ID":53193,"ELEMENT_SET_NO":999,"REV_AT_EPOCH":20033,"BSTAR":4.5803103e-5,"MEAN_MOTION_DOT":5.3e-6,"MEAN_MOTION_DDOT":0}]
